OBJECT_NAME,OBJECT_ID,EPOCH,MEAN_MOTION,ECCENTRICITY,INCLINATION,RA_OF_ASC_NODE,ARG_OF_PERICENTER,MEAN_ANOMALY,EPHEMERIS_TYPE,CLASSIFICATION_TYPE,NORAD_CAT_ID,ELEMENT_SET_NO,REV_AT_EPOCH,BSTAR,MEAN_MOTION_DOT,MEAN_MOTION_DDOT
INTELSAT 23 (IS-23),2012-057A,2026-07-18T19:15:38.598048,1.00277457,.00002811,0.0118,352.1056,137.1444,43.2224,0,U,38867,999,5027,0,-.291E-5,0
BEIDOU-2 G6,2012-059A,2026-07-18T21:02:20.634144,1.00273161,.00088274,4.5000,73.1804,327.5469,295.5388,0,U,38953,999,5022,0,-.184E-5,0
LUCH-5B,2012-061A,2026-07-18T08:01:00.263712,1.00270293,.00038352,10.5496,49.5701,147.0481,203.4789,0,U,38977,999,4991,0,-.149E-5,0
YAMAL 300K,2012-061B,2026-07-19T02:04:12.075168,1.00269663,.0000536,0.0115,73.3425,78.3879,359.1692,0,U,38978,999,4995,0,0,0
STAR ONE C3,2012-062A,2026-07-18T15:05:38.632704,1.00272662,.00022699,0.0190,54.8060,69.3322,323.7105,0,U,38991,999,5008,0,-.256E-5,0
EUTELSAT 21B,2012-062B,2026-07-18T22:02:26.678112,1.00272824,.00032397,0.0686,342.3143,142.6505,163.9215,0,U,38992,999,5014,0,.124E-5,0
ECHOSTAR 16,2012-065A,2026-07-18T19:31:38.724096,1.00271653,.0002106,0.0199,54.9121,60.1750,52.9311,0,U,39008,999,4996,0,-.288E-5,0
ZHONGXING-12,2012-067A,2026-07-19T02:57:21.702240,1.00271506,.0002821,0.0431,96.0193,20.9306,311.8013,0,U,39017,999,4982,0,-.212E-5,0
EUTELSAT 70B,2012-069A,2026-07-18T23:02:06.377856,1.00271713,.00035901,0.0618,9.1974,108.1700,235.4057,0,U,39020,999,4982,0,-.49E-6,0
YAMAL 402,2012-070A,2026-07-18T22:44:07.050912,1.00271729,.00037238,1.3443,83.7641,27.2067,221.6859,0,U,39022,999,4971,0,.79E-6,0
SKYNET 5D,2012-075A,2026-07-18T22:40:28.490016,1.00272079,.00035686,0.0684,6.0023,119.8550,203.7379,0,U,39034,999,4947,0,.93E-6,0
MEXSAT 3,2012-075B,2026-07-18T14:07:38.839008,1.00270957,.00011189,0.0183,63.4933,47.6302,282.3712,0,U,39035,999,736,0,-.33E-6,0
TDRS 11,2013-004A,2026-07-18T17:31:48.616320,1.00264445,.00054642,3.5667,31.7466,29.8026,323.7807,0,U,39070,999,4700,0,.72E-6,0
AMAZONAS 3,2013-006A,2026-07-18T19:31:38.724096,1.00271341,.00034497,0.0327,232.9285,278.7844,16.8054,0,U,39078,999,4523,0,-.289E-5,0
AZERSPACE 1,2013-006B,2026-07-18T22:31:27.054048,1.00272298,.00019271,0.0206,51.9040,97.8461,170.8184,0,U,39079,999,4912,0,.127E-5,0
SBIRS GEO-2 (USA 241),2013-011A,2026-07-18T12:59:20.715072,1.00271719,.0001963,4.5548,52.5028,59.6288,329.2500,0,U,39120,999,4885,0,-.295E-5,0
EUTELSAT 117 WEST A,2013-012A,2026-07-18T14:07:38.839008,1.00270969,.00028022,0.0426,272.1290,204.2606,275.1008,0,U,39122,999,4874,0,-.2E-6,0
ANIK G1,2013-014A,2026-07-18T13:59:38.658048,1.00271916,.00018208,0.0404,239.5218,245.8688,273.5950,0,U,39127,999,4856,0,-.81E-6,0
ZHONGXING-11,2013-020A,2026-07-19T00:13:03.781056,1.00273771,.00021873,0.0482,273.2918,164.1425,320.5147,0,U,39157,999,4821,0,-.296E-5,0
EUTELSAT 7B,2013-022A,2026-07-18T18:50:38.706144,1.00270638,.00032355,0.0669,345.4488,63.4406,177.3407,0,U,39163,999,4826,0,.41E-6,0
WGS F5 (USA 243),2013-024A,2026-07-18T19:15:38.598048,1.00269292,.00000729,0.0213,68.4957,107.1565,357.3679,0,U,39168,999,4749,0,0,0
SES-6,2013-026A,2026-07-18T19:07:38.635680,1.00272137,.00026649,0.0174,2.0559,95.9164,85.0376,0,U,39172,999,4804,0,-.268E-5,0
IRNSS-1A,2013-034A,2026-07-10T17:17:25.712736,1.00281941,.0017567,35.7704,63.5328,183.4462,356.2994,0,U,39199,999,4760,0,.47E-6,0
MUOS-2,2013-036A,2026-07-18T17:27:56.486304,1.00272985,.00529858,5.0562,45.5540,176.3821,148.5403,0,U,39206,999,4750,0,-.21E-6,0
ALPHASAT,2013-038A,2026-07-18T11:37:55.962336,1.00271514,.00022852,3.0000,1.2081,135.9866,358.4330,0,U,39215,999,4433,0,.126E-5,0
INSAT-3D,2013-038B,2026-07-18T17:15:42.659136,1.00274452,.00009578,2.0058,82.1476,46.6822,196.0951,0,U,39216,999,4739,0,-.346E-5,0
WGS F6 (USA 244),2013-041A,2026-07-18T17:42:55.050624,1.00271863,.00002392,0.0189,52.1076,53.1931,321.7674,0,U,39222,999,4637,0,.82E-6,0
ES'HAIL 1,2013-044A,2026-07-18T22:07:16.856832,1.00270153,.00023007,0.0477,356.4974,112.6891,184.8392,0,U,39233,999,4694,0,.137E-5,0
GSAT-7,2013-044B,2026-07-18T20:17:38.576832,1.00271932,.00030797,0.1604,89.5123,175.2218,50.2705,0,U,39234,999,4557,0,-.83E-6,0
AMOS-4,2013-045A,2026-07-18T22:55:39.370656,1.00271368,.00020634,0.0118,236.1103,211.2470,258.2982,0,U,39237,999,4727,0,.2E-7,0
AEHF-3 (USA 246),2013-050A,2026-07-18T14:09:13.440096,1.00271943,.00885722,5.3686,66.8936,187.7007,129.8227,0,U,39256,999,4596,0,.2E-6,0
ASTRA 2E,2013-056A,2026-07-18T22:12:06.410016,1.00270777,.00026019,0.0707,318.9333,154.2952,184.9746,0,U,39285,999,4673,0,.144E-5,0
